{"type": "FeatureCollection", "features": [ {"type": "Feature", "properties": {"norad_id": 43010, "name": "FENGYUN 3D", "group": "weather", "lat": -34.145523434292045, "lon": -31.781947093722923, "alt_km": 833.5247260179858, "timestamp": "2025-12-21T14:40:47.553245+00:00", "meta": {"OBJECT_NAME": "FENGYUN 3D", "OBJECT_ID": "2017-072A", "EPOCH": "2025-12-21T06:23:07.473408", "MEAN_MOTION": 14.19686636, "ECCENTRICITY": 0.00013625, "INCLINATION": 98.9898, "RA_OF_ASC_NODE": 321.704, "ARG_OF_PERICENTER": 155.6682, "MEAN_ANOMALY": 204.4558, "EPHEMERIS_TYPE": 0, "CLASSIFICATION_TYPE": "U", "NORAD_CAT_ID": 43010, "ELEMENT_SET_NO": 999, "REV_AT_EPOCH": 41974, "BSTAR": 0.00015193679, "MEAN_MOTION_DOT": 2.75e-06, "MEAN_MOTION_DDOT": 0}, "tle": {"line1": "1 43010U 17072A   25355.26605872  .00000275  00000+0  15194-3 0  9997", "line2": "2 43010  98.9898 321.7040 0001362 155.6682 204.4558 14.19686636419746"}}, "geometry": {"type": "Point", "coordinates": [-31.781947093722923, -34.145523434292045]}}, {"type": "Feature", "properties": {"norad_id": 43013, "name": "NOAA 20 (JPSS-1)", "group": "weather", "lat": 65.81384711547139, "lon": 131.8933005414503, "alt_km": 819.3021952084591, "timestamp": "2025-12-21T14:40:47.553256+00:00", "meta": {"OBJECT_NAME": "NOAA 20 (JPSS-1)", "OBJECT_ID": "2017-073A", "EPOCH": "2025-12-21T04:00:05.831424", "MEAN_MOTION": 14.19527818, "ECCENTRICITY": 0.0002126, "INCLINATION": 98.7611, "RA_OF_ASC_NODE": 291.3717, "ARG_OF_PERICENTER": 75.1777, "MEAN_ANOMALY": 284.9634, "EPHEMERIS_TYPE": 0, "CLASSIFICATION_TYPE": "U", "NORAD_CAT_ID": 43013, "ELEMENT_SET_NO": 999, "REV_AT_EPOCH": 41921, "BSTAR": 5.1773263e-05, "MEAN_MOTION_DOT": 6.5e-07, "MEAN_MOTION_DDOT": 0}, "tle": {"line1": "1 43013U 17073A   25355.16673416  .00000065  00000+0  51773-4 0  9990", "line2": "2 43013  98.7611 291.3717 0002126  75.1777 284.9634 14.19527818419219"}}, "geometry": {"type": "Point", "coordinates": [131.8933005414503, 65.81384711547139]}}, {"type": "Feature", "properties": {"norad_id": 43226, "name": "GOES 17", "group": "weather", "lat": 0.33908896049485154, "lon": -138.92012141919952, "alt_km": 35779.79005744958, "timestamp": "2025-12-21T14:40:47.553268+00:00", "meta": {"OBJECT_NAME": "GOES 17", "OBJECT_ID": "2018-022A", "EPOCH": "2025-12-21T04:12:45.785952", "MEAN_MOTION": 1.00270516, "ECCENTRICITY": 0.00030989, "INCLINATION": 0.4781, "RA_OF_ASC_NODE": 89.1352, "ARG_OF_PERICENTER": 191.7232, "MEAN_ANOMALY": 142.8234, "EPHEMERIS_TYPE": 0, "CLASSIFICATION_TYPE": "U", "NORAD_CAT_ID": 43226, "ELEMENT_SET_NO": 999, "REV_AT_EPOCH": 2863, "BSTAR": 0, "MEAN_MOTION_DOT": -1.6e-06, "MEAN_MOTION_DDOT": 0}, "tle": {"line1": "1 43226U 18022A   25355.17552993 -.00000160  00000+0  00000+0 0  9997", "line2": "2 43226   0.4781  89.1352 0003098 191.7232 142.8234  1.00270516 28637"}}, "geometry": {"type": "Point", "coordinates": [-138.92012141919952, 0.33908896049485154]}}, {"type": "Feature", "properties": {"norad_id": 43491, "name": "FENGYUN 2H", "group": "weather", "lat": -1.9956723127453733, "lon": 30.015869382437945, "alt_km": 35794.48772681096, "timestamp": "2025-12-21T14:40:47.553289+00:00", "meta": {"OBJECT_NAME": "FENGYUN 2H", "OBJECT_ID": "2018-050A", "EPOCH": "2025-12-21T01:35:30.848928", "MEAN_MOTION": 1.00271172, "ECCENTRICITY": 0.00023647, "INCLINATION": 2.5713, "RA_OF_ASC_NODE": 81.2426, "ARG_OF_PERICENTER": 165.815, "MEAN_ANOMALY": 306.0626, "EPHEMERIS_TYPE": 0, "CLASSIFICATION_TYPE": "U", "NORAD_CAT_ID": 43491, "ELEMENT_SET_NO": 999, "REV_AT_EPOCH": 2765, "BSTAR": 0, "MEAN_MOTION_DOT": -1.09e-06, "MEAN_MOTION_DDOT": 0}, "tle": {"line1": "1 43491U 18050A   25355.06632927 -.00000109  00000+0  00000+0 0  9999", "line2": "2 43491   2.5713  81.2426 0002364 165.8150 306.0626  1.00271172 27659"}}, "geometry": {"type": "Point", "coordinates": [30.015869382437945, -1.9956723127453733]}}, {"type": "Feature", "properties": {"norad_id": 43689, "name": "METOP-C", "group": "weather", "lat": -43.43986321095448, "lon": 61.573875366495955, "alt_km": 826.7118566634972, "timestamp": "2025-12-21T14:40:47.553302+00:00", "meta": {"OBJECT_NAME": "METOP-C", "OBJECT_ID": "2018-087A", "EPOCH": "2025-12-21T04:45:03.046752", "MEAN_MOTION": 14.21487374, "ECCENTRICITY": 8.391e-05, "INCLINATION": 98.6917, "RA_OF_ASC_NODE": 52.8375, "ARG_OF_PERICENTER": 24.4579, "MEAN_ANOMALY": 335.6638, "EPHEMERIS_TYPE": 0, "CLASSIFICATION_TYPE": "U", "NORAD_CAT_ID": 43689, "ELEMENT_SET_NO": 999, "REV_AT_EPOCH": 36954, "BSTAR": 6.6832487e-05, "MEAN_MOTION_DOT": 1.03e-06, "MEAN_MOTION_DDOT": 0}, "tle": {"line1": "1 43689U 18087A   25355.19795193  .00000103  00000+0  66832-4 0  9990", "line2": "2 43689  98.6917  52.8375 0000839  24.4579 335.6638 14.21487374369545"}}, "geometry": {"type": "Point", "coordinates": [61.573875366495955, -43.43986321095448]}}, {"type": "Feature", "properties": {"norad_id": 43823, "name": "GEO-KOMPSAT-2A", "group": "weather", "lat": -0.0020415504407211896, "lon": 78.88527625170016, "alt_km": 35784.7759296248, "timestamp": "2025-12-21T14:40:47.553313+00:00", "meta": {"OBJECT_NAME": "GEO-KOMPSAT-2A", "OBJECT_ID": "2018-100A", "EPOCH": "2025-12-21T05:16:38.609184", "MEAN_MOTION": 1.0027085, "ECCENTRICITY": 4.162e-05, "INCLINATION": 0.0515, "RA_OF_ASC_NODE": 134.4702, "ARG_OF_PERICENTER": 327.096, "MEAN_ANOMALY": 195.9071, "EPHEMERIS_TYPE": 0, "CLASSIFICATION_TYPE": "U", "NORAD_CAT_ID": 43823, "ELEMENT_SET_NO": 999, "REV_AT_EPOCH": 2584, "BSTAR": 0, "MEAN_MOTION_DOT": -3.21e-06, "MEAN_MOTION_DDOT": 0}, "tle": {"line1": "1 43823U 18100A   25355.21989131 -.00000321  00000+0  00000+0 0  9999", "line2": "2 43823   0.0515 134.4702 0000416 327.0960 195.9071  1.00270850 25846"}}, "geometry": {"type": "Point", "coordinates": [78.88527625170016, -0.0020415504407211896]}}, {"type": "Feature", "properties": {"norad_id": 44387, "name": "METEOR-M2 2", "group": "weather", "lat": 58.962392581100026, "lon": 170.538008859288, "alt_km": 803.958213648114, "timestamp": "2025-12-21T14:40:47.553324+00:00", "meta": {"OBJECT_NAME": "METEOR-M2 2", "OBJECT_ID": "2019-038A", "EPOCH": "2025-12-21T05:41:21.996096", "MEAN_MOTION": 14.24294871, "ECCENTRICITY": 0.00016421, "INCLINATION": 98.8973, "RA_OF_ASC_NODE": 335.0699, "ARG_OF_PERICENTER": 130.3179, "MEAN_ANOMALY": 229.8143, "EPHEMERIS_TYPE": 0, "CLASSIFICATION_TYPE": "U", "NORAD_CAT_ID": 44387, "ELEMENT_SET_NO": 999, "REV_AT_EPOCH": 33596, "BSTAR": 8.2088702e-05, "MEAN_MOTION_DOT": 1.44e-06, "MEAN_MOTION_DDOT": 0}, "tle": {"line1": "1 44387U 19038A   25355.23706014  .00000144  00000+0  82089-4 0  9999", "line2": "2 44387  98.8973 335.0699 0001642 130.3179 229.8143 14.24294871335961"}}, "geometry": {"type": "Point", "coordinates": [170.538008859288, 58.962392581100026]}}, {"type": "Feature", "properties": {"norad_id": 47719, "name": "ARKTIKA-M 1", "group": "weather", "lat": 45.45062776703719, "lon": 113.7269496236198, "alt_km": 24197.4371179121, "timestamp": "2025-12-21T14:40:47.553337+00:00", "meta": {"OBJECT_NAME": "ARKTIKA-M 1", "OBJECT_ID": "2021-016A", "EPOCH": "2025-12-21T01:10:59.170944", "MEAN_MOTION": 2.00630317, "ECCENTRICITY": 0.7208476, "INCLINATION": 63.1763, "RA_OF_ASC_NODE": 82.8606, "ARG_OF_PERICENTER": 269.1559, "MEAN_ANOMALY": 15.5506, "EPHEMERIS_TYPE": 0, "CLASSIFICATION_TYPE": "U", "NORAD_CAT_ID": 47719, "ELEMENT_SET_NO": 999, "REV_AT_EPOCH": 3521, "BSTAR": 0, "MEAN_MOTION_DOT": -1e-06, "MEAN_MOTION_DDOT": 0}, "tle": {"line1": "1 47719U 21016A   25355.04929596 -.00000100  00000+0  00000+0 0  9992", "line2": "2 47719  63.1763  82.8606 7208476 269.1559  15.5506  2.00630317 35212"}}, "geometry": {"type": "Point", "coordinates": [113.7269496236198, 45.45062776703719]}}, {"type": "Feature", "properties": {"norad_id": 49008, "name": "FENGYUN 3E", "group": "weather", "lat": -60.60982008613378, "lon": 11.890646932316955, "alt_km": 832.903827409401, "timestamp": "2025-12-21T14:40:47.553349+00:00", "meta": {"OBJECT_NAME": "FENGYUN 3E", "OBJECT_ID": "2021-062A", "EPOCH": "2025-12-21T06:30:52.135200", "MEAN_MOTION": 14.1988229, "ECCENTRICITY": 7.85e-05, "INCLINATION": 98.7469, "RA_OF_ASC_NODE": 355.6914, "ARG_OF_PERICENTER": 205.4952, "MEAN_ANOMALY": 154.6186, "EPHEMERIS_TYPE": 0, "CLASSIFICATION_TYPE": "U", "NORAD_CAT_ID": 49008, "ELEMENT_SET_NO": 999, "REV_AT_EPOCH": 23133, "BSTAR": 0.000208849, "MEAN_MOTION_DOT": 3.99e-06, "MEAN_MOTION_DDOT": 0}, "tle": {"line1": "1 49008U 21062A   25355.27143675  .00000399  00000+0  20885-3 0  9993", "line2": "2 49008  98.7469 355.6914 0000785 205.4952 154.6186 14.19882290231333"}}, "geometry": {"type": "Point", "coordinates": [11.890646932316955, -60.60982008613378]}}, {"type": "Feature", "properties": {"norad_id": 51850, "name": "GOES 18", "group": "weather", "lat": -0.0008143178690746283, "lon": 173.62986977302182, "alt_km": 35786.05462025379, "timestamp": "2025-12-21T14:40:47.553363+00:00", "meta": {"OBJECT_NAME": "GOES 18", "OBJECT_ID": "2022-021A", "EPOCH": "2025-12-21T03:59:09.589344", "MEAN_MOTION": 1.00273572, "ECCENTRICITY": 1.556e-05, "INCLINATION": 0.0206, "RA_OF_ASC_NODE": 179.4522, "ARG_OF_PERICENTER": 136.7288, "MEAN_ANOMALY": 56.6078, "EPHEMERIS_TYPE": 0, "CLASSIFICATION_TYPE": "U", "NORAD_CAT_ID": 51850, "ELEMENT_SET_NO": 999, "REV_AT_EPOCH": 480, "BSTAR": 0, "MEAN_MOTION_DOT": 1.19e-06, "MEAN_MOTION_DDOT": 0}, "tle": {"line1": "1 51850U 22021A   25355.16608321  .00000119  00000+0  00000+0 0  9992", "line2": "2 51850   0.0206 179.4522 0000155 136.7288  56.6078  1.00273572  4806"}}, "geometry": {"type": "Point", "coordinates": [173.62986977302182, -0.0008143178690746283]}}]}